{
    "links": {
        "self": "http://www.neowsapp.com/rest/v1/neo/3555887?api_key=iIulBulltgU6a56xZRHN4H3l9WmuAYTsLGpBGhQ2"
    },
    "id": "3555887",
    "neo_reference_id": "3555887",
    "name": "(2011 BJ39)",
    "designation": "2011 BJ39",
    "nasa_jpl_url": "http://ssd.jpl.nasa.gov/sbdb.cgi?sstr=3555887",
    "absolute_magnitude_h": 27.4,
    "estimated_diameter": {
        "kilometers": {
            "estimated_diameter_min": 0.0088014652,
            "estimated_diameter_max": 0.0196806745
        },
        "meters": {
            "estimated_diameter_min": 8.801465209,
            "estimated_diameter_max": 19.6806745089
        },
        "miles": {
            "estimated_diameter_min": 0.0054689752,
            "estimated_diameter_max": 0.0122290004
        },
        "feet": {
            "estimated_diameter_min": 28.8761991163,
            "estimated_diameter_max": 64.5691441559
        }
    },
    "is_potentially_hazardous_asteroid": false,
    "close_approach_data": [
        {
            "close_approach_date": "1900-02-14",
            "close_approach_date_full": "1900-Feb-14 12:28",
            "epoch_date_close_approach": -2205142320000,
            "relative_velocity": {
                "kilometers_per_second": "6.6182868587",
                "kilometers_per_hour": "23825.8326911992",
                "miles_per_hour": "14804.445874151"
            },
            "miss_distance": {
                "astronomical": "0.0866952583",
                "lunar": "33.7244554787",
                "kilometers": "12969425.980779821",
                "miles": "8058827.6116546898"
            },
            "orbiting_body": "Earth"
        },
        {
            "close_approach_date": "1933-12-04",
            "close_approach_date_full": "1933-Dec-04 13:02",
            "epoch_date_close_approach": -1138445880000,
            "relative_velocity": {
                "kilometers_per_second": "17.5421452563",
                "kilometers_per_hour": "63151.7229225234",
                "miles_per_hour": "39240.0247237202"
            },
            "miss_distance": {
                "astronomical": "0.4544279486",
                "lunar": "176.7724720054",
                "kilometers": "67981453.179029482",
                "miles": "42241716.2310395716"
            },
            "orbiting_body": "Earth"
        },
        {
            "close_approach_date": "1964-02-24",
            "close_approach_date_full": "1964-Feb-24 21:36",
            "epoch_date_close_approach": -184645440000,
            "relative_velocity": {
                "kilometers_per_second": "8.7654780288",
                "kilometers_per_hour": "31555.7209037859",
                "miles_per_hour": "19607.4978026885"
            },
            "miss_distance": {
                "astronomical": "0.1577369212",
                "lunar": "61.3596623468",
                "kilometers": "23597107.431877844",
                "miles": "14662562.6461044872"
            },
            "orbiting_body": "Earth"
        },
        {
            "close_approach_date": "1979-03-16",
            "close_approach_date_full": "1979-Mar-16 09:29",
            "epoch_date_close_approach": 290424540000,
            "relative_velocity": {
                "kilometers_per_second": "16.9558782449",
                "kilometers_per_hour": "61041.1616814708",
                "miles_per_hour": "37928.6040459117"
            },
            "miss_distance": {
                "astronomical": "0.4297884547",
                "lunar": "167.1877088783",
                "kilometers": "64295437.373711489",
                "miles": "39951332.2161329882"
            },
            "orbiting_body": "Earth"
        },
        {
            "close_approach_date": "2011-01-28",
            "close_approach_date_full": "2011-Jan-28 05:20",
            "epoch_date_close_approach": 1296192000000,
            "relative_velocity": {
                "kilometers_per_second": "4.8564589925",
                "kilometers_per_hour": "17483.2523728444",
                "miles_per_hour": "10863.4131202265"
            },
            "miss_distance": {
                "astronomical": "0.0312951578",
                "lunar": "12.1738163842",
                "kilometers": "4681688.948193886",
                "miles": "2909066.6171961868"
            },
            "orbiting_body": "Earth"
        }
    ],
    "orbital_data": {
        "orbit_id": "9",
        "orbit_determination_date": "2019-07-17 06:09:20",
        "first_observation_date": "2011-01-30",
        "last_observation_date": "2011-02-03",
        "data_arc_in_days": 4,
        "observations_used": 28,
        "orbit_uncertainty": "7",
        "minimum_orbit_intersection": ".0304631",
        "jupiter_tisserand_invariant": "4.437",
        "epoch_osculation": "2459000.5",
        "eccentricity": ".3332837703858318",
        "semi_major_axis": "1.520491465469885",
        "inclination": "5.177943798871689",
        "ascending_node_longitude": "132.734012979552",
        "orbital_period": "684.8168017250023",
        "perihelion_distance": "1.013736337018603",
        "perihelion_argument": "350.9011427676888",
        "aphelion_distance": "2.027246593921168",
        "perihelion_time": "2459010.152714480763",
        "mean_anomaly": "354.9256834757538",
        "mean_motion": ".5256880367029356",
        "equinox": "J2000",
        "orbit_class": {
            "orbit_class_type": "APO",
            "orbit_class_description": "Near-Earth asteroid orbits which cross the Earth’s orbit similar to that of 1862 Apollo",
            "orbit_class_range": "a (semi-major axis) > 1.0 AU; q (perihelion) < 1.017 AU"
        }
    },
    "is_sentry_object": false
}